#aV2009 11  2  0  0   .00000000      96 DD+AD WGS84 FIT  NGA
## 1556  86400.00000000   900.00000000 55137  .0000000000000
+   31     1  2  3  4  5  6  7  8  9 10 11 12 13 14 15 16 17
+         18 19 20 21 22 23 24 26 27 28 29 30 31 32  0  0  0
+          0  0  0  0  0  0  0  0  0  0  0  0  0  0  0  0  0
+          0  0  0  0  0  0  0  0  0  0  0  0  0  0  0  0  0
+          0  0  0  0  0  0  0  0  0  0  0  0  0  0  0  0  0
++         0  0  0  0  0  0  0  0  0  0  0  0  0  0  0  0  0
++         0  0  0  0  0  0  0  0  0  0  0  0  0  0  0  0  0
++         0  0  0  0  0  0  0  0  0  0  0  0  0  0  0  0  0
++         0  0  0  0  0  0  0  0  0  0  0  0  0  0  0  0  0
++         0  0  0  0  0  0  0  0  0  0  0  0  0  0  0  0  0
%c cc cc ccc ccc cccc cccc cccc cccc ccccc ccccc ccccc ccccc
%c cc cc ccc ccc cccc cccc cccc cccc ccccc ccccc ccccc ccccc
%f  0.0000000  0.000000000  0.00000000000  0.000000000000000
%f  0.0000000  0.000000000  0.00000000000  0.000000000000000
%i    0    0    0    0      0      0      0      0         0
%i    0    0    0    0      0      0      0      0         0
/*      NGA, ST. LOUIS,MO.                                  
/*   EPHEMERIS COMPUTED FROM  3 DAYS OF DATA                
/* CCCCCCCCCCCCCCCCCCCCCCCCCCCCCCCCCCCCCCCCCCCCCCCCCCCCCCCCC
/* CCCCCCCCCCCCCCCCCCCCCCCCCCCCCCCCCCCCCCCCCCCCCCCCCCCCCCCCC
*  2009 11  2 14 30   .00000000                                                 
P  1   5669.615296  15976.380782 -20573.697251    -62.998169                    
V  1 -25419.720352  -4846.715256 -10721.171763      -.018241                    
P  2 -21101.164678   9213.769005 -12926.167503    187.266204                    
V  2   8863.334631 -14262.400032 -25193.731876       .040703                    
P  3  14681.052603  -5841.227680  21008.623109    469.054293                    
V  3  11136.375016  25275.671472   -393.854859       .052357                    
P  4 -18324.242981  -1266.575916 -19460.007043   -340.015670                    
V  4  15769.550763 -18584.122354 -13380.288482      -.180443                    
P  5 -22758.807210   4178.222219  13092.885544    -52.265041                    
V  5 -15708.831223  -5849.465346 -25341.453580       .075845                    
P  6  16055.866892  -1836.590384  21266.500351    258.526066                    
V  6   8555.153343  25280.728726  -4215.576510       .028377                    
P  7    896.260809 -19220.643424  18226.340303      8.455237                    
V  7  16967.693571 -15899.883122 -17738.884716      -.006896                    
P  8 -10340.898322 -10228.372517  22194.579689     31.125177                    
V  8  20676.843440 -19136.039105    306.012646       .936390                    
P  9 -14740.714500  21666.232832  -4790.636275     86.316149                    
V  9  -5098.084641   2510.665604  31421.387029       .019709                    
P 10 -24612.027281   1095.680056  10186.333946    -27.357999                    
V 10 -12061.696662  -5587.001643 -27753.114229      -.007921                    
P 11   9678.554023 -24113.887976  -4724.399235    -27.219030                    
V 11   7438.562446  -2436.573087  29503.953633      -.017726                    
P 12  -9724.644474  12637.663133 -21163.647753   -195.708330                    
V 12 -26095.288389  -6975.600422   7926.227063       .053554                    
P 13  -5640.296303 -25937.701170   -734.617299    306.029914                    
V 13   1900.674993    351.048433 -32466.946835       .001980                    
P 14  14012.314959  17822.844461 -13805.127889    -29.650342                    
V 14   2968.912384  17477.180347  25199.504409       .049332                    
P 15 -10389.788981  14013.339073  20035.012370   -320.372015                    
V 15  -8886.350031 -23841.764698  12165.723049       .001126                    
P 16  25805.968365   2010.926592   6556.272537     -4.124051                    
V 16   7388.497215   4193.134636 -30337.080054      -.041046                    
P 17 -14918.279409 -17146.598269 -13837.213409     98.607304                    
V 17  -2776.375157 -17521.042559  24375.682875       .034582                    
P 18  12154.629903  16353.674920  17480.151352     24.697939                    
V 18 -21374.165852  -3752.226893  18267.854754       .028250                    
P 19  10391.985837 -15176.207405  19099.143614      3.296129                    
V 19   6783.646455  23356.408510  15170.934489      -.019000                    
P 20   4807.693745 -15036.181639 -21483.147599     68.547875                    
V 20  26475.634508   5637.448443   2041.441351      -.008672                    
P 21   4268.815359  16980.259553  20094.796199    -18.897656                    
V 21 -18590.451129  17018.956369 -11213.297325      -.023390                    
P 22  22063.773445  12312.116863   8482.926578    187.249326                    
V 22 -11016.700933    339.437806  28647.983209      -.008147                    
P 23   2346.723587 -23014.341158 -12800.403603    386.620741                    
V 23   6814.244331  14990.690904 -26054.665813      -.005765                    
P 24 -10438.014606  21665.153213  11662.627286    233.374739                    
V 24 -12169.746796   8364.481049 -26443.306599       .029976                    
P 26  10716.993450  22904.035195  -7790.895075      5.498488                    
V 26    213.714965   9471.009950  30682.904633      -.017162                    
P 27 -17593.521235  19855.712734   1127.436317     96.466034                    
V 27  -1416.068228  -1964.624297  32096.748367       .031143                    
P 28 -20418.500771 -13432.608065  11219.112380    -25.639919                    
V 28  13490.712662   1637.702156  27309.866660       .001897                    
P 29   4420.392107  25938.610447  -3685.046170     71.093066                    
V 29  -3951.634268  -3881.740817 -31248.217674       .031306                    
P 30   3530.902360  16027.198629 -21280.681819    189.941393                    
V 30 -25819.653397  -4170.912143  -7503.997621       .030989                    
P 31  18749.159708  -1592.365827 -18589.705449    -61.876792                    
V 31 -15474.248698  18334.959284 -16844.380342       .007024                    
P 32  13693.858400 -10153.840054 -19908.358316    165.907835                    
V 32  24530.989862   9312.075538  12187.004090      -.074159                    
EOF
